INTELSAT 902 (IS-902)   
1 26900U 01039A   26187.24557654 -.00000272  00000+0  00000+0 0  9992
2 26900   6.1639  71.5498 0004285  32.2428 218.7251  1.00270531 90888
INTELSAT 904 (IS-904)   
1 27380U 02007A   26187.49720801 -.00000214  00000+0  00000+0 0  9990
2 27380   6.9649  68.9514 0005736  19.5778 343.4633  1.00273383 51961
DIRECTV 5 (TEMPO 1)     
1 27426U 02023A   26187.34189345 -.00000045  00000+0  00000+0 0  9997
2 27426   4.9235  75.0739 0003188  30.9545 191.2774  1.00271144 88314
INTELSAT 905 (IS-905)   
1 27438U 02027A   26187.39766965  .00000105  00000+0  00000+0 0  9994
2 27438   6.7985  69.5671 0003754  39.3705 181.4022  1.00271718 51552
GALAXY 3C (G-3C)        
1 27445U 02030A   26187.54891714 -.00000140  00000+0  00000+0 0  9994
2 27445   3.7799  77.7266 0001709  34.4765 275.1140  1.00271409 46688
INTELSAT 906 (IS-906)   
1 27513U 02041A   26187.23095947  .00000025  00000+0  00000+0 0  9993
2 27513   5.8497  72.6870 0004028  14.2547 344.5480  1.00271310 87211
GALAXY 13 (HORIZONS-1)  
1 27954U 03044A   26187.54500421  .00000147  00000+0  00000+0 0  9993
2 27954   1.4683  83.6166 0001739  20.7989 226.3031  1.00274060 46766
INTELSAT 10-02          
1 28358U 04022A   26187.36071100  .00000004  00000+0  00000+0 0  9998
2 28358   0.0428 259.5941 0000466 299.9477 213.6568  1.00274350 80742
DIRECTV 8               
1 28659U 05019A   26187.55115757  .00000016  00000+0  00000+0 0  9990
2 28659   0.0191  44.4326 0003168  73.2382 246.2286  1.00271793 77261
GALAXY 28 (G-28)        
1 28702U 05022A   26187.42667925 -.00000188  00000+0  00000+0 0  9999
2 28702   3.3448  78.7009 0002437  18.6763 313.5377  1.00267684 52168
GALAXY 16 (G-16)        
1 29236U 06023A   26187.55514426 -.00000112  00000+0  00000+0 0  9992
2 29236   0.0302 135.8828 0002562 332.8806 276.6217  1.00270905 73161
DIRECTV 9S              
1 29494U 06043A   26187.55471093 -.00000100  00000+0  00000+0 0  9999
2 29494   2.4675  80.6755 0005203  28.1113 274.2479  1.00271323 51573
GALAXY 17 (G-17)        
1 31307U 07016B   26187.55791760 -.00000193  00000+0  00000+0 0  9994
2 31307   3.0174  79.6609 0003763  25.0726 295.6296  1.00272877 69995
INTELSAT 11 (IS-11)     
1 32253U 07044B   26187.22662611  .00000063  00000+0  00000+0 0  9997
2 32253   3.6117  78.4437 0003738  94.2256 235.1469  0.99049027 68630
HORIZONS-2              
1 32388U 07063B   26187.56008428 -.00000240  00000+0  00000+0 0  9992
2 32388   2.6488  80.3946 0003859  12.6664 319.3157  1.00272624 68001
DIRECTV 11              
1 32729U 08013A   26187.55505759 -.00000111  00000+0  00000+0 0  9992
2 32729   0.0431 213.7320 0000257 230.7062 300.7323  1.00270000 45787
GALAXY 18 (G-18)        
1 32951U 08024A   26187.47909458  .00000040  00000+0  00000+0 0  9996
2 32951   0.0176 293.3911 0002957 181.1266 219.4187  1.00272845 46047
GALAXY 19 (G-19)        
1 33376U 08045A   26187.55549093 -.00000124  00000+0  00000+0 0  9999
2 33376   0.0597 254.4964 0002811 233.6824 259.3243  1.00271564 65093
FM-5                    
1 35493U 09034A   26187.55765760 -.00000185  00000+0  00000+0 0  9998
2 35493   0.0418 265.2729 0001270  80.5464  53.3158  1.00269217 46833
INTELSAT 14 (IS-14)     
1 36097U 09064A   26187.42321256 -.00000259  00000+0  00000+0 0  9998
2 36097   0.0175 346.1764 0002459 122.6765 282.9218  1.00271764 60792
INTELSAT 15 (IS-15)     
1 36106U 09067A   26187.59158895 -.00000170  00000+0  00000+0 0  9999
2 36106   0.0160  22.5837 0002268  88.1794 111.9333  1.00271500 41425
DIRECTV 12              
1 36131U 09075A   26187.55436426 -.00000088  00000+0  00000+0 0  9999
2 36131   0.0356 179.6798 0000185 320.7613 240.9366  1.00270048 46746
INTELSAT 16 (IS-16)     
1 36397U 10006A   26187.55965095 -.00000230  00000+0  00000+0 0  9997
2 36397   0.0178 312.2247 0002513 175.9341 281.6578  1.00270372 59843
XM-5                    
1 37185U 10053A   26187.55193758 -.00000008  00000+0  00000+0 0  9997
2 37185   0.0666 268.2229 0001619 310.5878 149.2273  1.00269077 57679
INTELSAT 17 (IS-17)     
1 37238U 10065B   26187.51653476  .00000013  00000+0  00000+0 0  9998
2 37238   0.0067  66.5673 0002586  43.2158  66.6515  1.00272407 53443
INTELSAT 28 (IS-28)     
1 37392U 11016A   26187.43107404 -.00000211  00000+0  00000+0 0  9993
2 37392   1.8527  82.3947 0003773  27.4334 298.0249  1.00270630 53477
INTELSAT 18 (IS-18)     
1 37834U 11056A   26187.53911084  .00000067  00000+0  00000+0 0  9994
2 37834   0.0133 305.9358 0001877 169.1680 183.4862  1.00271393 54008
INTELSAT 22 (IS-22)     
1 38098U 12011A   26187.58898895  .00000000  00000+0  00000+0 0  9995
2 38098   0.0254  53.0987 0001781  68.0811  87.5102  1.00269225  7382
INTELSAT 19 (IS-19)     
1 38356U 12030A   26187.50669834 -.00000042  00000+0  00000+0 0  9991
2 38356   0.0002  97.2869 0003145  23.3112 152.3030  1.00271423 50644
INTELSAT 20 (IS-20)     
1 38740U 12043A   26187.51705477 -.00000009  00000+0  00000+0 0  9990
2 38740   0.0106  50.0722 0001485 135.1381 353.9147  1.00269870 50940
INTELSAT 21 (IS-21)     
1 38749U 12045A   26187.49192132 -.00000270  00000+0  00000+0 0  9996
2 38749   0.0117 310.0890 0001810 174.5148 278.9664  1.00270723 50710
INTELSAT 23 (IS-23)     
1 38867U 12057A   26187.49296132 -.00000270  00000+0  00000+0 0  9995
2 38867   0.0115  49.9207 0000412  93.9648 265.0535  1.00275871 50145
FM-6                    
1 39360U 13058A   26187.55167758  .00000000  00000+0  00000+0 0  9994
2 39360   0.0443  67.6200 0002872 115.7368 183.4535  1.00273247 46268
INTELSAT 30 (IS-30)     
1 40271U 14062A   26187.55592426 -.00000136  00000+0  00000+0 0  9998
2 40271   0.0155  44.3426 0001594 339.5556   5.7286  1.00268834  6988
DIRECTV 14              
1 40333U 14078B   26187.55505759 -.00000111  00000+0  00000+0 0  9990
2 40333   0.0116  39.1776 0000157 344.3419   1.5943  1.00274416 42235
DIRECTV 15              
1 40663U 15026A   26187.55436426 -.00000088  00000+0  00000+0 0  9997
2 40663   0.0158  68.1582 0000369 300.9055  12.1756  1.00273192 40657
SKY MEXICO-1            
1 40664U 15026B   26187.55913095 -.00000220  00000+0  00000+0 0  9998
2 40664   0.0204 293.9809 0002504 191.4927 281.5625  1.00271119 40647
INTELSAT 34 (IS-34)     
1 40874U 15039A   26187.56372431 -.00000271  00000+0  00000+0 0  9995
2 40874   0.0130 333.9991 0000523  36.0445  61.9559  1.00272053 39825
INTELSAT 31 (IS-31)     
1 41581U 16035A   26187.27078995 -.00000136  00000+0  00000+0 0  9994
2 41581   0.0403 211.4121 0000829  55.4380  19.8435  1.00270733 36871
INTELSAT 36 (IS-36)     
1 41747U 16053A   26187.51705477 -.00000009  00000+0  00000+0 0  9996
2 41747   0.0094 359.8970 0002338 344.4822 194.7564  1.00269377 36158
INTELSAT 32E (IS-32E)   
1 41945U 17007B   26187.20972603 -.00000254  00000+0  00000+0 0  9991
2 41945   0.0177 341.1822 0000837  13.2972 322.0488  1.00273073 34415
INTELSAT 35E (IS-35E)   
1 42818U 17041A   26187.42173174 -.00000223  00000+0  00000+0 0  9995
2 42818   0.0177 348.0553 0001844 113.0569 300.6279  1.00272098 33002
INTELSAT 37E (IS-37E)   
1 42950U 17059A   26187.42858591  .00000000  00000+0  00000+0 0  9996
2 42950   0.0195  31.4474 0002627  83.1160 306.1471  1.00270440 32258
AZERSPACE 2 (IS-38)     
1 43632U 18074A   26187.58365772  .00000151  00000+0  00000+0 0  9990
2 43632   0.0157  11.6524 0001330  99.4243  68.7197  1.00270676 28647
HORIZONS-3E             
1 43633U 18074B   26187.53694417 -.00000016  00000+0  00000+0 0  9998
2 43633   0.0367 229.5570 0000760  46.9063  10.3650  1.00270360 28530
AT&T T-16               
1 44333U 19034A   26187.55479759 -.00000100  00000+0  00000+0 0  9999
2 44333   0.0147  53.7962 0000481 260.1449  69.4668  1.00268433 25825
INTELSAT 39 (IS-39)     
1 44476U 19049B   26187.64318933  .00000000  00000+0  00000+0 0  9997
2 44476   0.0206  26.9161 0000698 294.5686 256.6379  1.00275014 25323
GALAXY 30 (G-30)        
1 46114U 20056C   26187.05101846  .00000051  00000+0  00000+0 0  9992
2 46114   0.0181  36.0032 0001980  70.3190  71.0988  1.00273430 21488
GALAXY 33 (G-33)        
1 54026U 22128A   26186.90669551  .00000093  00000+0  00000+0 0  9996
2 54026   0.0199  60.6254 0001909  40.7490  15.9321  1.00271642 13934
GALAXY 34 (G-34)        
1 54027U 22128B   26186.76500991  .00000000  00000+0  00000+0 0  9991
2 54027   0.0172  13.7883 0001807 107.9387 308.4392  1.00274436 14091
GALAXY 31 (G-31)        
1 54243U 22153A   26186.90920884  .00000027  00000+0  00000+0 0  9991
2 54243   0.0241  93.4797 0001393  12.8884  23.8446  1.00272424  7324
GALAXY 32 (G-32)        
1 54244U 22153B   26187.12895448 -.00000160  00000+0  00000+0 0  9993
2 54244   0.0098  10.1353 0001684  39.8195 189.5913  1.00271060 13338
GALAXY 35 (G-35)        
1 54741U 22170A   26187.55627094 -.00000148  00000+0  00000+0 0  9997
2 54741   0.0208  89.2684 0002114  18.8807 283.5456  1.00271835 13082
GALAXY 36 (G-36)        
1 54742U 22170B   26187.55713760 -.00000170  00000+0  00000+0 0  9999
2 54742   0.0223 133.7937 0002707 323.3985 298.9170  1.00271240 12964
GALAXY 37 (G-37)        
1 57493U 23112A   26187.47831457  .00000000  00000+0  00000+0 0  9998
2 57493   0.0234  35.9381 0001784  80.5319 213.1837  1.00271052 10738
